STARLINK-1465
1 45731U 20038B   26060.83899911  .00117829  00000+0  21590-2 0  9991
2 45731  53.0519 260.7879 0003348 177.8892 182.2130 15.48440665315160
STARLINK-1595
1 46159U 20057AU  26061.13072824  .00098435  00000+0  18088-2 0  9996
2 46159  53.0504 332.9008 0007968  94.4162 265.7755 15.48425819306435
